{"type": "FeatureCollection", "features": [ {"type": "Feature", "properties": {"norad_id": 40315, "name": "COSMOS 2501 (702K)", "group": "gnss", "lat": -9.432534593508084, "lon": 21.236540482354293, "alt_km": 19081.802034448472, "timestamp": "2025-12-22T04:03:39.411550+00:00", "meta": {"OBJECT_NAME": "COSMOS 2501 (702K)", "OBJECT_ID": "2014-075A", "EPOCH": "2025-12-19T02:31:27.452640", "MEAN_MOTION": 2.13101513, "ECCENTRICITY": 0.0020099, "INCLINATION": 63.6146, "RA_OF_ASC_NODE": 196.6046, "ARG_OF_PERICENTER": 204.1838, "MEAN_ANOMALY": 155.7988, "EPHEMERIS_TYPE": 0, "CLASSIFICATION_TYPE": "U", "NORAD_CAT_ID": 40315, "ELEMENT_SET_NO": 999, "REV_AT_EPOCH": 8601, "BSTAR": 0, "MEAN_MOTION_DOT": 1.06e-06, "MEAN_MOTION_DDOT": 0}, "tle": {"line1": "1 40315U 14075A   25353.10517885  .00000106  00000+0  00000+0 0  9998", "line2": "2 40315  63.6146 196.6046 0020099 204.1838 155.7988  2.13101513 86014"}}, "geometry": {"type": "Point", "coordinates": [21.236540482354293, -9.432534593508084]}}, {"type": "Feature", "properties": {"norad_id": 40534, "name": "GPS BIIF-9  (PRN 26)", "group": "gnss", "lat": 51.746625047294735, "lon": -76.74378277235505, "alt_km": 19956.36084646626, "timestamp": "2025-12-22T04:03:39.411561+00:00", "meta": {"OBJECT_NAME": "GPS BIIF-9  (PRN 26)", "OBJECT_ID": "2015-013A", "EPOCH": "2025-12-21T01:33:43.050240", "MEAN_MOTION": 2.00562033, "ECCENTRICITY": 0.01073869, "INCLINATION": 53.1966, "RA_OF_ASC_NODE": 211.5454, "ARG_OF_PERICENTER": 38.6862, "MEAN_ANOMALY": 322.1684, "EPHEMERIS_TYPE": 0, "CLASSIFICATION_TYPE": "U", "NORAD_CAT_ID": 40534, "ELEMENT_SET_NO": 999, "REV_AT_EPOCH": 7825, "BSTAR": 0, "MEAN_MOTION_DOT": 7.9e-07, "MEAN_MOTION_DDOT": 0}, "tle": {"line1": "1 40534U 15013A   25355.06508160  .00000079  00000+0  00000+0 0  9996", "line2": "2 40534  53.1966 211.5454 0107386  38.6862 322.1684  2.00562033 78257"}}, "geometry": {"type": "Point", "coordinates": [-76.74378277235505, 51.746625047294735]}}, {"type": "Feature", "properties": {"norad_id": 40544, "name": "GSAT0203 (GALILEO 7)", "group": "gnss", "lat": 48.98388485191226, "lon": 35.14264775058119, "alt_km": 23232.839800683214, "timestamp": "2025-12-22T04:03:39.411576+00:00", "meta": {"OBJECT_NAME": "GSAT0203 (GALILEO 7)", "OBJECT_ID": "2015-017A", "EPOCH": "2025-12-20T07:18:34.773696", "MEAN_MOTION": 1.70475998, "ECCENTRICITY": 0.00064692, "INCLINATION": 56.8445, "RA_OF_ASC_NODE": 346.4738, "ARG_OF_PERICENTER": 274.1452, "MEAN_ANOMALY": 85.7909, "EPHEMERIS_TYPE": 0, "CLASSIFICATION_TYPE": "U", "NORAD_CAT_ID": 40544, "ELEMENT_SET_NO": 999, "REV_AT_EPOCH": 6615, "BSTAR": 0, "MEAN_MOTION_DOT": -7.1e-07, "MEAN_MOTION_DDOT": 0}, "tle": {"line1": "1 40544U 15017A   25354.30456914 -.00000071  00000+0  00000+0 0  9999", "line2": "2 40544  56.8445 346.4738 0006469 274.1452  85.7909  1.70475998 66152"}}, "geometry": {"type": "Point", "coordinates": [35.14264775058119, 48.98388485191226]}}, {"type": "Feature", "properties": {"norad_id": 40545, "name": "GSAT0204 (GALILEO 8)", "group": "gnss", "lat": -56.751919757191814, "lon": -108.08088067363497, "alt_km": 23209.8332757604, "timestamp": "2025-12-22T04:03:39.411588+00:00", "meta": {"OBJECT_NAME": "GSAT0204 (GALILEO 8)", "OBJECT_ID": "2015-017B", "EPOCH": "2025-12-20T13:26:28.826304", "MEAN_MOTION": 1.70475697, "ECCENTRICITY": 0.0006133, "INCLINATION": 56.8522, "RA_OF_ASC_NODE": 346.4847, "ARG_OF_PERICENTER": 266.5447, "MEAN_ANOMALY": 93.3948, "EPHEMERIS_TYPE": 0, "CLASSIFICATION_TYPE": "U", "NORAD_CAT_ID": 40545, "ELEMENT_SET_NO": 999, "REV_AT_EPOCH": 2920, "BSTAR": 0, "MEAN_MOTION_DOT": -7e-07, "MEAN_MOTION_DDOT": 0}, "tle": {"line1": "1 40545U 15017B   25354.56005586 -.00000070  00000+0  00000+0 0  9992", "line2": "2 40545  56.8522 346.4847 0006133 266.5447  93.3948  1.70475697 29206"}}, "geometry": {"type": "Point", "coordinates": [-108.08088067363497, -56.751919757191814]}}, {"type": "Feature", "properties": {"norad_id": 40549, "name": "BEIDOU-3S IGSO-1S (C31)", "group": "gnss", "lat": -36.09906510437433, "lon": -100.84517031003814, "alt_km": 35850.83065358226, "timestamp": "2025-12-22T04:03:39.411601+00:00", "meta": {"OBJECT_NAME": "BEIDOU-3S IGSO-1S (C31)", "OBJECT_ID": "2015-019A", "EPOCH": "2025-12-18T19:55:38.829792", "MEAN_MOTION": 1.00292047, "ECCENTRICITY": 0.0036331, "INCLINATION": 49.5404, "RA_OF_ASC_NODE": 297.6395, "ARG_OF_PERICENTER": 194.0028, "MEAN_ANOMALY": 349.3621, "EPHEMERIS_TYPE": 0, "CLASSIFICATION_TYPE": "U", "NORAD_CAT_ID": 40549, "ELEMENT_SET_NO": 999, "REV_AT_EPOCH": 3926, "BSTAR": 0, "MEAN_MOTION_DOT": -1.83e-06, "MEAN_MOTION_DDOT": 0}, "tle": {"line1": "1 40549U 15019A   25352.83031053 -.00000183  00000+0  00000+0 0  9999", "line2": "2 40549  49.5404 297.6395 0036331 194.0028 349.3621  1.00292047 39264"}}, "geometry": {"type": "Point", "coordinates": [-100.84517031003814, -36.09906510437433]}}, {"type": "Feature", "properties": {"norad_id": 40730, "name": "GPS BIIF-10 (PRN 08)", "group": "gnss", "lat": -31.236524528073595, "lon": -111.61667311961328, "alt_km": 20066.176883882647, "timestamp": "2025-12-22T04:03:39.411613+00:00", "meta": {"OBJECT_NAME": "GPS BIIF-10 (PRN 08)", "OBJECT_ID": "2015-033A", "EPOCH": "2025-12-21T17:23:51.615744", "MEAN_MOTION": 2.00565211, "ECCENTRICITY": 0.0111478, "INCLINATION": 54.1229, "RA_OF_ASC_NODE": 274.4032, "ARG_OF_PERICENTER": 27.0282, "MEAN_ANOMALY": 333.5929, "EPHEMERIS_TYPE": 0, "CLASSIFICATION_TYPE": "U", "NORAD_CAT_ID": 40730, "ELEMENT_SET_NO": 999, "REV_AT_EPOCH": 7643, "BSTAR": 0, "MEAN_MOTION_DOT": -1.3e-07, "MEAN_MOTION_DDOT": 0}, "tle": {"line1": "1 40730U 15033A   25355.72490296 -.00000013  00000+0  00000+0 0  9998", "line2": "2 40730  54.1229 274.4032 0111478  27.0282 333.5929  2.00565211 76430"}}, "geometry": {"type": "Point", "coordinates": [-111.61667311961328, -31.236524528073595]}}, {"type": "Feature", "properties": {"norad_id": 40748, "name": "BEIDOU-3S M2S (C58)", "group": "gnss", "lat": 21.481728926659386, "lon": -35.911737996246195, "alt_km": 21540.24313473348, "timestamp": "2025-12-22T04:03:39.411625+00:00", "meta": {"OBJECT_NAME": "BEIDOU-3S M2S (C58)", "OBJECT_ID": "2015-037A", "EPOCH": "2025-12-21T01:20:10.923072", "MEAN_MOTION": 1.86229523, "ECCENTRICITY": 0.00119434, "INCLINATION": 55.0313, "RA_OF_ASC_NODE": 308.1782, "ARG_OF_PERICENTER": 270.3499, "MEAN_ANOMALY": 89.5076, "EPHEMERIS_TYPE": 0, "CLASSIFICATION_TYPE": "U", "NORAD_CAT_ID": 40748, "ELEMENT_SET_NO": 999, "REV_AT_EPOCH": 7080, "BSTAR": 0, "MEAN_MOTION_DOT": -6.4e-07, "MEAN_MOTION_DDOT": 0}, "tle": {"line1": "1 40748U 15037A   25355.05568198 -.00000064  00000+0  00000+0 0  9990", "line2": "2 40748  55.0313 308.1782 0011943 270.3499  89.5076  1.86229523 70801"}}, "geometry": {"type": "Point", "coordinates": [-35.911737996246195, 21.481728926659386]}}, {"type": "Feature", "properties": {"norad_id": 40749, "name": "BEIDOU-3S M1S (C57)", "group": "gnss", "lat": -40.92442670340601, "lon": 165.42362008621052, "alt_km": 21536.903025005646, "timestamp": "2025-12-22T04:03:39.411636+00:00", "meta": {"OBJECT_NAME": "BEIDOU-3S M1S (C57)", "OBJECT_ID": "2015-037B", "EPOCH": "2025-12-21T06:50:01.998240", "MEAN_MOTION": 1.86253999, "ECCENTRICITY": 0.00036481, "INCLINATION": 55.0276, "RA_OF_ASC_NODE": 308.16, "ARG_OF_PERICENTER": 1.485, "MEAN_ANOMALY": 358.5113, "EPHEMERIS_TYPE": 0, "CLASSIFICATION_TYPE": "U", "NORAD_CAT_ID": 40749, "ELEMENT_SET_NO": 999, "REV_AT_EPOCH": 7081, "BSTAR": 0, "MEAN_MOTION_DOT": -6.3e-07, "MEAN_MOTION_DDOT": 0}, "tle": {"line1": "1 40749U 15037B   25355.28474535 -.00000063  00000+0  00000+0 0  9996", "line2": "2 40749  55.0276 308.1600 0003648   1.4850 358.5113  1.86253999 70812"}}, "geometry": {"type": "Point", "coordinates": [165.42362008621052, -40.92442670340601]}}, {"type": "Feature", "properties": {"norad_id": 40889, "name": "GSAT0205 (GALILEO 9)", "group": "gnss", "lat": 38.63507565079484, "lon": -99.44298678558478, "alt_km": 23199.710005092562, "timestamp": "2025-12-22T04:03:39.411650+00:00", "meta": {"OBJECT_NAME": "GSAT0205 (GALILEO 9)", "OBJECT_ID": "2015-045A", "EPOCH": "2025-12-20T21:57:55.201536", "MEAN_MOTION": 1.70473188, "ECCENTRICITY": 0.00060952, "INCLINATION": 55.0008, "RA_OF_ASC_NODE": 226.5322, "ARG_OF_PERICENTER": 41.0262, "MEAN_ANOMALY": 319.1287, "EPHEMERIS_TYPE": 0, "CLASSIFICATION_TYPE": "U", "NORAD_CAT_ID": 40889, "ELEMENT_SET_NO": 999, "REV_AT_EPOCH": 6397, "BSTAR": 0, "MEAN_MOTION_DOT": 7.2e-07, "MEAN_MOTION_DDOT": 0}, "tle": {"line1": "1 40889U 15045A   25354.91522224  .00000072  00000+0  00000+0 0  9997", "line2": "2 40889  55.0008 226.5322 0006095  41.0262 319.1287  1.70473188 63971"}}, "geometry": {"type": "Point", "coordinates": [-99.44298678558478, 38.63507565079484]}}, {"type": "Feature", "properties": {"norad_id": 40890, "name": "GSAT0206 (GALILEO 10)", "group": "gnss", "lat": -54.773732620632536, "lon": 143.79014582954693, "alt_km": 23236.872318336453, "timestamp": "2025-12-22T04:03:39.411661+00:00", "meta": {"OBJECT_NAME": "GSAT0206 (GALILEO 10)", "OBJECT_ID": "2015-045B", "EPOCH": "2025-12-21T03:15:40.639392", "MEAN_MOTION": 1.70473045, "ECCENTRICITY": 0.0004419, "INCLINATION": 54.9998, "RA_OF_ASC_NODE": 226.5212, "ARG_OF_PERICENTER": 45.8333, "MEAN_ANOMALY": 314.3117, "EPHEMERIS_TYPE": 0, "CLASSIFICATION_TYPE": "U", "NORAD_CAT_ID": 40890, "ELEMENT_SET_NO": 999, "REV_AT_EPOCH": 6400, "BSTAR": 0, "MEAN_MOTION_DOT": 7.2e-07, "MEAN_MOTION_DDOT": 0}, "tle": {"line1": "1 40890U 15045B   25355.13588703  .00000072  00000+0  00000+0 0  9998", "line2": "2 40890  54.9998 226.5212 0004419  45.8333 314.3117  1.70473045 64002"}}, "geometry": {"type": "Point", "coordinates": [143.79014582954693, -54.773732620632536]}}]}